[{"OBJECT_NAME":"STARLINK-4703","OBJECT_ID":"2022-114AP","EPOCH":"2025-10-17T01:41:57.449184","MEAN_MOTION":15.08836933,"ECCENTRICITY":0.0001453,"INCLINATION":53.2171,"RA_OF_ASC_NODE":218.5959,"ARG_OF_PERICENTER":81.9178,"MEAN_ANOMALY":278.1979,"EPHEMERIS_TYPE":0,"CLASSIFICATION_TYPE":"U","NORAD_CAT_ID":53855,"ELEMENT_SET_NO":999,"REV_AT_EPOCH":17129,"BSTAR":-3.4425e-6,"MEAN_MOTION_DOT":-3.43e-6,"MEAN_MOTION_DDOT":0},{"OBJECT_NAME":"STARLINK-4795","OBJECT_ID":"2022-114AQ","EPOCH":"2025-10-17T03:56:25.051776","MEAN_MOTION":15.08135526,"ECCENTRICITY":0.0001662,"INCLINATION":53.2167,"RA_OF_ASC_NODE":208.4846,"ARG_OF_PERICENTER":78.3558,"MEAN_ANOMALY":281.762,"EPHEMERIS_TYPE":0,"CLASSIFICATION_TYPE":"U","NORAD_CAT_ID":53856,"ELEMENT_SET_NO":999,"REV_AT_EPOCH":17144,"BSTAR":-0.0062784,"MEAN_MOTION_DOT":-0.00096984,"MEAN_MOTION_DDOT":0},{"OBJECT_NAME":"STARLINK-4809","OBJECT_ID":"2022-114AR","EPOCH":"2025-10-17T04:30:07.685280","MEAN_MOTION":15.08834634,"ECCENTRICITY":0.0001479,"INCLINATION":53.2173,"RA_OF_ASC_NODE":217.905,"ARG_OF_PERICENTER":79.004,"MEAN_ANOMALY":281.1119,"EPHEMERIS_TYPE":0,"CLASSIFICATION_TYPE":"U","NORAD_CAT_ID":53857,"ELEMENT_SET_NO":999,"REV_AT_EPOCH":17131,"BSTAR":1.9416e-5,"MEAN_MOTION_DOT":2.1e-7,"MEAN_MOTION_DDOT":0},{"OBJECT_NAME":"STARLINK-4798","OBJECT_ID":"2022-114AS","EPOCH":"2025-10-17T04:15:38.916000","MEAN_MOTION":15.08842176,"ECCENTRICITY":0.0001442,"INCLINATION":53.2158,"RA_OF_ASC_NODE":208.5665,"ARG_OF_PERICENTER":86.9419,"MEAN_ANOMALY":273.1738,"EPHEMERIS_TYPE":0,"CLASSIFICATION_TYPE":"U","NORAD_CAT_ID":53858,"ELEMENT_SET_NO":999,"REV_AT_EPOCH":17144,"BSTAR":5.0426e-5,"MEAN_MOTION_DOT":5.15e-6,"MEAN_MOTION_DDOT":0},{"OBJECT_NAME":"STARLINK-4790","OBJECT_ID":"2022-114AT","EPOCH":"2025-10-17T01:27:58.292640","MEAN_MOTION":15.08842685,"ECCENTRICITY":0.0001612,"INCLINATION":53.2166,"RA_OF_ASC_NODE":213.5502,"ARG_OF_PERICENTER":88.1214,"MEAN_ANOMALY":271.9963,"EPHEMERIS_TYPE":0,"CLASSIFICATION_TYPE":"U","NORAD_CAT_ID":53859,"ELEMENT_SET_NO":999,"REV_AT_EPOCH":17136,"BSTAR":9.1716e-5,"MEAN_MOTION_DOT":1.172e-5,"MEAN_MOTION_DDOT":0},{"OBJECT_NAME":"STARLINK-4799","OBJECT_ID":"2022-114AU","EPOCH":"2025-10-17T04:05:02.674176","MEAN_MOTION":15.08838581,"ECCENTRICITY":0.0001377,"INCLINATION":53.2179,"RA_OF_ASC_NODE":208.5176,"ARG_OF_PERICENTER":91.4454,"MEAN_ANOMALY":268.6696,"EPHEMERIS_TYPE":0,"CLASSIFICATION_TYPE":"U","NORAD_CAT_ID":53860,"ELEMENT_SET_NO":999,"REV_AT_EPOCH":17120,"BSTAR":4.4824e-5,"MEAN_MOTION_DOT":4.25e-6,"MEAN_MOTION_DDOT":0},{"OBJECT_NAME":"STARLINK-4781","OBJECT_ID":"2022-114AV","EPOCH":"2025-10-17T04:10:20.862912","MEAN_MOTION":15.08841828,"ECCENTRICITY":0.0001329,"INCLINATION":53.2166,"RA_OF_ASC_NODE":208.5478,"ARG_OF_PERICENTER":96.0433,"MEAN_ANOMALY":264.0711,"EPHEMERIS_TYPE":0,"CLASSIFICATION_TYPE":"U","NORAD_CAT_ID":53861,"ELEMENT_SET_NO":999,"REV_AT_EPOCH":17144,"BSTAR":4.4367e-5,"MEAN_MOTION_DOT":4.18e-6,"MEAN_MOTION_DDOT":0},{"OBJECT_NAME":"STARLINK-4788","OBJECT_ID":"2022-114AX","EPOCH":"2025-10-17T03:54:25.754976","MEAN_MOTION":15.08839889,"ECCENTRICITY":0.0001462,"INCLINATION":53.2178,"RA_OF_ASC_NODE":208.4788,"ARG_OF_PERICENTER":84.8328,"MEAN_ANOMALY":275.2831,"EPHEMERIS_TYPE":0,"CLASSIFICATION_TYPE":"U","NORAD_CAT_ID":53863,"ELEMENT_SET_NO":999,"REV_AT_EPOCH":17144,"BSTAR":5.3053e-5,"MEAN_MOTION_DOT":5.56e-6,"MEAN_MOTION_DDOT":0},{"OBJECT_NAME":"STARLINK-4779","OBJECT_ID":"2022-114AY","EPOCH":"2025-10-17T04:26:09.904704","MEAN_MOTION":15.08831603,"ECCENTRICITY":0.0001346,"INCLINATION":53.2181,"RA_OF_ASC_NODE":207.9011,"ARG_OF_PERICENTER":91.2399,"MEAN_ANOMALY":268.8747,"EPHEMERIS_TYPE":0,"CLASSIFICATION_TYPE":"U","NORAD_CAT_ID":53864,"ELEMENT_SET_NO":999,"REV_AT_EPOCH":17145,"BSTAR":-6.2153e-5,"MEAN_MOTION_DOT":-1.277e-5,"MEAN_MOTION_DDOT":0},{"OBJECT_NAME":"STARLINK-4762","OBJECT_ID":"2022-114BA","EPOCH":"2025-10-17T01:02:14.482752","MEAN_MOTION":15.08840263,"ECCENTRICITY":0.000141,"INCLINATION":53.2175,"RA_OF_ASC_NODE":189.1853,"ARG_OF_PERICENTER":85.4112,"MEAN_ANOMALY":274.7042,"EPHEMERIS_TYPE":0,"CLASSIFICATION_TYPE":"U","NORAD_CAT_ID":53866,"ELEMENT_SET_NO":999,"REV_AT_EPOCH":17170,"BSTAR":3.2639e-5,"MEAN_MOTION_DOT":2.32e-6,"MEAN_MOTION_DDOT":0},{"OBJECT_NAME":"STARLINK-4793","OBJECT_ID":"2022-114BB","EPOCH":"2025-10-17T03:55:45.528960","MEAN_MOTION":15.08842992,"ECCENTRICITY":0.0001748,"INCLINATION":53.2171,"RA_OF_ASC_NODE":198.494,"ARG_OF_PERICENTER":96.2678,"MEAN_ANOMALY":263.8514,"EPHEMERIS_TYPE":0,"CLASSIFICATION_TYPE":"U","NORAD_CAT_ID":53867,"ELEMENT_SET_NO":999,"REV_AT_EPOCH":17158,"BSTAR":2.1862e-5,"MEAN_MOTION_DOT":6.0e-7,"MEAN_MOTION_DDOT":0},{"OBJECT_NAME":"STARLINK-4789","OBJECT_ID":"2022-114BC","EPOCH":"2025-10-16T00:29:00.375936","MEAN_MOTION":15.08841381,"ECCENTRICITY":0.00012756,"INCLINATION":53.214,"RA_OF_ASC_NODE":193.4754,"ARG_OF_PERICENTER":85.6114,"MEAN_ANOMALY":274.5024,"EPHEMERIS_TYPE":0,"CLASSIFICATION_TYPE":"U","NORAD_CAT_ID":53868,"ELEMENT_SET_NO":999,"REV_AT_EPOCH":17155,"BSTAR":0.00017634141,"MEAN_MOTION_DOT":2.52e-5,"MEAN_MOTION_DDOT":0},{"OBJECT_NAME":"STARLINK-4810","OBJECT_ID":"2022-114BD","EPOCH":"2025-10-17T01:27:19.412640","MEAN_MOTION":15.08836398,"ECCENTRICITY":0.0001481,"INCLINATION":53.2184,"RA_OF_ASC_NODE":198.5658,"ARG_OF_PERICENTER":83.9102,"MEAN_ANOMALY":276.2059,"EPHEMERIS_TYPE":0,"CLASSIFICATION_TYPE":"U","NORAD_CAT_ID":53869,"ELEMENT_SET_NO":999,"REV_AT_EPOCH":17157,"BSTAR":6.7296e-5,"MEAN_MOTION_DOT":7.83e-6,"MEAN_MOTION_DDOT":0},{"OBJECT_NAME":"STARLINK-4732","OBJECT_ID":"2022-114BE","EPOCH":"2025-10-16T00:34:18.058368","MEAN_MOTION":15.08841583,"ECCENTRICITY":0.00015616,"INCLINATION":53.2192,"RA_OF_ASC_NODE":193.4842,"ARG_OF_PERICENTER":87.3426,"MEAN_ANOMALY":272.7745,"EPHEMERIS_TYPE":0,"CLASSIFICATION_TYPE":"U","NORAD_CAT_ID":53870,"ELEMENT_SET_NO":999,"REV_AT_EPOCH":17155,"BSTAR":9.0889779e-5,"MEAN_MOTION_DOT":1.159e-5,"MEAN_MOTION_DDOT":0},{"OBJECT_NAME":"STARLINK-4740","OBJECT_ID":"2022-114BF","EPOCH":"2025-10-16T10:59:34.203264","MEAN_MOTION":15.08820882,"ECCENTRICITY":0.0001443,"INCLINATION":53.2153,"RA_OF_ASC_NODE":191.2239,"ARG_OF_PERICENTER":91.0472,"MEAN_ANOMALY":269.0685,"EPHEMERIS_TYPE":0,"CLASSIFICATION_TYPE":"U","NORAD_CAT_ID":53871,"ELEMENT_SET_NO":999,"REV_AT_EPOCH":17162,"BSTAR":0.00032407,"MEAN_MOTION_DOT":4.871e-5,"MEAN_MOTION_DDOT":0},{"OBJECT_NAME":"STARLINK-5028","OBJECT_ID":"2022-119A","EPOCH":"2025-10-17T03:54:27.788832","MEAN_MOTION":15.08831997,"ECCENTRICITY":0.0001213,"INCLINATION":53.2174,"RA_OF_ASC_NODE":248.669,"ARG_OF_PERICENTER":79.5465,"MEAN_ANOMALY":280.5664,"EPHEMERIS_TYPE":0,"CLASSIFICATION_TYPE":"U","NORAD_CAT_ID":53886,"ELEMENT_SET_NO":999,"REV_AT_EPOCH":17001,"BSTAR":0.00042554,"MEAN_MOTION_DOT":6.49e-5,"MEAN_MOTION_DDOT":0},{"OBJECT_NAME":"STARLINK-5029","OBJECT_ID":"2022-119B","EPOCH":"2025-10-17T03:38:32.621280","MEAN_MOTION":15.08841299,"ECCENTRICITY":0.0001371,"INCLINATION":53.2171,"RA_OF_ASC_NODE":248.5993,"ARG_OF_PERICENTER":91.1459,"MEAN_ANOMALY":268.969,"EPHEMERIS_TYPE":0,"CLASSIFICATION_TYPE":"U","NORAD_CAT_ID":53887,"ELEMENT_SET_NO":999,"REV_AT_EPOCH":17001,"BSTAR":-3.5533e-7,"MEAN_MOTION_DOT":-2.94e-6,"MEAN_MOTION_DDOT":0}]
