STARLINK-4703           
1 53855U 22114AP  25290.07080381 -.00000343  00000+0 -34425-5 0  9995
2 53855  53.2171 218.5959 0001453  81.9178 278.1979 15.08836933171292
STARLINK-4795           
1 53856U 22114AQ  25290.16417884 -.00096984  00000+0 -62784-2 0  9990
2 53856  53.2167 208.4846 0001662  78.3558 281.7620 15.08135526171445
STARLINK-4809           
1 53857U 22114AR  25290.18758895  .00000021  00000+0  19416-4 0  9994
2 53857  53.2173 217.9050 0001479  79.0040 281.1119 15.08834634171314
STARLINK-4798           
1 53858U 22114AS  25290.17753375  .00000515  00000+0  50426-4 0  9996
2 53858  53.2158 208.5665 0001442  86.9419 273.1738 15.08842176171445
STARLINK-4790           
1 53859U 22114AT  25290.06109135  .00001172  00000+0  91716-4 0  9991
2 53859  53.2166 213.5502 0001612  88.1214 271.9963 15.08842685171369
STARLINK-4799           
1 53860U 22114AU  25290.17016984  .00000425  00000+0  44824-4 0  9992
2 53860  53.2179 208.5176 0001377  91.4454 268.6696 15.08838581171206
STARLINK-4781           
1 53861U 22114AV  25290.17385258  .00000418  00000+0  44367-4 0  9990
2 53861  53.2166 208.5478 0001329  96.0433 264.0711 15.08841828171445
STARLINK-4788           
1 53863U 22114AX  25290.16279809  .00000556  00000+0  53053-4 0  9990
2 53863  53.2178 208.4788 0001462  84.8328 275.2831 15.08839889171440
STARLINK-4779           
1 53864U 22114AY  25290.18483686 -.00001277  00000+0 -62153-4 0  9997
2 53864  53.2181 207.9011 0001346  91.2399 268.8747 15.08831603171450
STARLINK-4762           
1 53866U 22114BA  25290.04322318  .00000232  00000+0  32639-4 0  9992
2 53866  53.2175 189.1853 0001410  85.4112 274.7042 15.08840263171704
STARLINK-4793           
1 53867U 22114BB  25290.16372140  .00000060  00000+0  21862-4 0  9999
2 53867  53.2171 198.4940 0001748  96.2678 263.8514 15.08842992171582
STARLINK-4789           
1 53868U 22114BC  25289.02014324  .00002520  00000+0  17634-3 0  9994
2 53868  53.2140 193.4754 0001275  85.6114 274.5024 15.08841381171552
STARLINK-4810           
1 53869U 22114BD  25290.06064135  .00000783  00000+0  67296-4 0  9995
2 53869  53.2184 198.5658 0001481  83.9102 276.2059 15.08836398171578
STARLINK-4732           
1 53870U 22114BE  25289.02382012  .00001159  00000+0  90890-4 0  9992
2 53870  53.2192 193.4842 0001561  87.3426 272.7745 15.08841583171557
STARLINK-4740           
1 53871U 22114BF  25289.45803476  .00004871  00000+0  32407-3 0  9995
2 53871  53.2153 191.2239 0001443  91.0472 269.0685 15.08820882171622
STARLINK-5028           
1 53886U 22119A   25290.16282163  .00006490  00000+0  42554-3 0  9993
2 53886  53.2174 248.6690 0001213  79.5465 280.5664 15.08831997170013
STARLINK-5029           
1 53887U 22119B   25290.15176645 -.00000294  00000+0 -35533-6 0  9990
2 53887  53.2171 248.5993 0001371  91.1459 268.9690 15.08841299170019
